[{"OBJECT_NAME":"ASTRA 3B","OBJECT_ID":"2010-021A","EPOCH":"2026-02-01T21:17:38.584896","MEAN_MOTION":1.00271485,"ECCENTRICITY":0.0002421,"INCLINATION":1.1187,"RA_OF_ASC_NODE":85.4055,"ARG_OF_PERICENTER":245.1926,"MEAN_ANOMALY":144.3552,"EPHEMERIS_TYPE":0,"CLASSIFICATION_TYPE":"U","NORAD_CAT_ID":36581,"ELEMENT_SET_NO":999,"REV_AT_EPOCH":5751,"BSTAR":0,"MEAN_MOTION_DOT":1.26e-6,"MEAN_MOTION_DDOT":0},{"OBJECT_NAME":"COMSATBW-2","OBJECT_ID":"2010-021B","EPOCH":"2026-02-01T22:06:31.388832","MEAN_MOTION":1.00268577,"ECCENTRICITY":0.00026598,"INCLINATION":0.0548,"RA_OF_ASC_NODE":194.4664,"ARG_OF_PERICENTER":120.7464,"MEAN_ANOMALY":161.7011,"EPHEMERIS_TYPE":0,"CLASSIFICATION_TYPE":"U","NORAD_CAT_ID":36582,"ELEMENT_SET_NO":999,"REV_AT_EPOCH":5760,"BSTAR":0,"MEAN_MOTION_DOT":7.8e-7,"MEAN_MOTION_DDOT":0},{"OBJECT_NAME":"BEIDOU-2 G3","OBJECT_ID":"2010-024A","EPOCH":"2026-02-01T17:17:20.731776","MEAN_MOTION":1.00272515,"ECCENTRICITY":0.00065287,"INCLINATION":4.1936,"RA_OF_ASC_NODE":62.0405,"ARG_OF_PERICENTER":310.7134,"MEAN_ANOMALY":98.0672,"EPHEMERIS_TYPE":0,"CLASSIFICATION_TYPE":"U","NORAD_CAT_ID":36590,"ELEMENT_SET_NO":999,"REV_AT_EPOCH":5741,"BSTAR":0,"MEAN_MOTION_DOT":-1.46e-6,"MEAN_MOTION_DDOT":0},{"OBJECT_NAME":"BADR-5","OBJECT_ID":"2010-025A","EPOCH":"2026-02-01T21:17:38.584896","MEAN_MOTION":1.00271601,"ECCENTRICITY":5.949e-5,"INCLINATION":0.0636,"RA_OF_ASC_NODE":107.4272,"ARG_OF_PERICENTER":191.8157,"MEAN_ANOMALY":178.1835,"EPHEMERIS_TYPE":0,"CLASSIFICATION_TYPE":"U","NORAD_CAT_ID":36592,"ELEMENT_SET_NO":999,"REV_AT_EPOCH":5186,"BSTAR":0,"MEAN_MOTION_DOT":1.35e-6,"MEAN_MOTION_DDOT":0},{"OBJECT_NAME":"COMS 1","OBJECT_ID":"2010-032A","EPOCH":"2026-02-01T22:39:20.744640","MEAN_MOTION":1.0027143,"ECCENTRICITY":0.00011874,"INCLINATION":4.4617,"RA_OF_ASC_NODE":77.3374,"ARG_OF_PERICENTER":233.7224,"MEAN_ANOMALY":289.0823,"EPHEMERIS_TYPE":0,"CLASSIFICATION_TYPE":"U","NORAD_CAT_ID":36744,"ELEMENT_SET_NO":999,"REV_AT_EPOCH":4973,"BSTAR":0,"MEAN_MOTION_DOT":-3.56e-6,"MEAN_MOTION_DDOT":0},{"OBJECT_NAME":"ARABSAT-5A","OBJECT_ID":"2010-032B","EPOCH":"2026-02-01T22:11:23.421696","MEAN_MOTION":1.00268938,"ECCENTRICITY":0.0001694,"INCLINATION":0.0637,"RA_OF_ASC_NODE":48.7663,"ARG_OF_PERICENTER":289.4855,"MEAN_ANOMALY":157.203,"EPHEMERIS_TYPE":0,"CLASSIFICATION_TYPE":"U","NORAD_CAT_ID":36745,"ELEMENT_SET_NO":999,"REV_AT_EPOCH":5729,"BSTAR":0,"MEAN_MOTION_DOT":1.43e-6,"MEAN_MOTION_DDOT":0},{"OBJECT_NAME":"ECHOSTAR 15","OBJECT_ID":"2010-034A","EPOCH":"2026-02-01T21:28:35.025312","MEAN_MOTION":1.00269072,"ECCENTRICITY":0.00023714,"INCLINATION":0.0154,"RA_OF_ASC_NODE":85.6542,"ARG_OF_PERICENTER":208.6884,"MEAN_ANOMALY":41.1014,"EPHEMERIS_TYPE":0,"CLASSIFICATION_TYPE":"U","NORAD_CAT_ID":36792,"ELEMENT_SET_NO":999,"REV_AT_EPOCH":5696,"BSTAR":0,"MEAN_MOTION_DOT":0,"MEAN_MOTION_DDOT":0},{"OBJECT_NAME":"BEIDOU-2 IGSO-1","OBJECT_ID":"2010-036A","EPOCH":"2026-02-01T19:07:41.024640","MEAN_MOTION":1.00260948,"ECCENTRICITY":0.00529429,"INCLINATION":54.2928,"RA_OF_ASC_NODE":164.1862,"ARG_OF_PERICENTER":217.401,"MEAN_ANOMALY":144.2759,"EPHEMERIS_TYPE":0,"CLASSIFICATION_TYPE":"U","NORAD_CAT_ID":36828,"ELEMENT_SET_NO":999,"REV_AT_EPOCH":5674,"BSTAR":0,"MEAN_MOTION_DOT":-1.5e-6,"MEAN_MOTION_DDOT":0},{"OBJECT_NAME":"NILESAT 201","OBJECT_ID":"2010-037A","EPOCH":"2026-02-01T22:00:39.451392","MEAN_MOTION":1.00269868,"ECCENTRICITY":0.0003403,"INCLINATION":0.0419,"RA_OF_ASC_NODE":235.8079,"ARG_OF_PERICENTER":58.4895,"MEAN_ANOMALY":160.9796,"EPHEMERIS_TYPE":0,"CLASSIFICATION_TYPE":"U","NORAD_CAT_ID":36830,"ELEMENT_SET_NO":999,"REV_AT_EPOCH":5700,"BSTAR":0,"MEAN_MOTION_DOT":-6.8e-7,"MEAN_MOTION_DDOT":0},{"OBJECT_NAME":"RASCOM-QAF 1R","OBJECT_ID":"2010-037B","EPOCH":"2026-02-01T22:03:31.675968","MEAN_MOTION":1.00270814,"ECCENTRICITY":0.00069004,"INCLINATION":0.0245,"RA_OF_ASC_NODE":105.0751,"ARG_OF_PERICENTER":202.0958,"MEAN_ANOMALY":158.7016,"EPHEMERIS_TYPE":0,"CLASSIFICATION_TYPE":"U","NORAD_CAT_ID":36831,"ELEMENT_SET_NO":999,"REV_AT_EPOCH":5695,"BSTAR":0,"MEAN_MOTION_DOT":8.0e-8,"MEAN_MOTION_DDOT":0},{"OBJECT_NAME":"AEHF-1 (USA 214)","OBJECT_ID":"2010-039A","EPOCH":"2026-02-01T18:45:50.618304","MEAN_MOTION":1.00276904,"ECCENTRICITY":0.0004666,"INCLINATION":7.888,"RA_OF_ASC_NODE":69.8066,"ARG_OF_PERICENTER":231.8201,"MEAN_ANOMALY":141.8264,"EPHEMERIS_TYPE":0,"CLASSIFICATION_TYPE":"U","NORAD_CAT_ID":36868,"ELEMENT_SET_NO":999,"REV_AT_EPOCH":5230,"BSTAR":0,"MEAN_MOTION_DOT":1.36e-6,"MEAN_MOTION_DDOT":0},{"OBJECT_NAME":"XM-5","OBJECT_ID":"2010-053A","EPOCH":"2026-02-01T21:29:49.904736","MEAN_MOTION":1.00271385,"ECCENTRICITY":0.00028932,"INCLINATION":0.0646,"RA_OF_ASC_NODE":268.4447,"ARG_OF_PERICENTER":257.3747,"MEAN_ANOMALY":173.51,"EPHEMERIS_TYPE":0,"CLASSIFICATION_TYPE":"U","NORAD_CAT_ID":37185,"ELEMENT_SET_NO":999,"REV_AT_EPOCH":5612,"BSTAR":0,"MEAN_MOTION_DOT":-3.3e-7,"MEAN_MOTION_DDOT":0},{"OBJECT_NAME":"BSAT-3B","OBJECT_ID":"2010-056B","EPOCH":"2026-02-01T22:34:06.246912","MEAN_MOTION":1.00271129,"ECCENTRICITY":0.00032021,"INCLINATION":0.0505,"RA_OF_ASC_NODE":240.3786,"ARG_OF_PERICENTER":46.2572,"MEAN_ANOMALY":293.8478,"EPHEMERIS_TYPE":0,"CLASSIFICATION_TYPE":"U","NORAD_CAT_ID":37207,"ELEMENT_SET_NO":999,"REV_AT_EPOCH":5074,"BSTAR":0,"MEAN_MOTION_DOT":-3.6e-6,"MEAN_MOTION_DDOT":0},{"OBJECT_NAME":"BEIDOU-2 G4","OBJECT_ID":"2010-057A","EPOCH":"2026-02-01T21:05:37.225248","MEAN_MOTION":1.00269261,"ECCENTRICITY":0.00101614,"INCLINATION":3.3102,"RA_OF_ASC_NODE":69.719,"ARG_OF_PERICENTER":204.3573,"MEAN_ANOMALY":334.3095,"EPHEMERIS_TYPE":0,"CLASSIFICATION_TYPE":"U","NORAD_CAT_ID":37210,"ELEMENT_SET_NO":999,"REV_AT_EPOCH":5593,"BSTAR":0,"MEAN_MOTION_DOT":-1.25e-6,"MEAN_MOTION_DDOT":0},{"OBJECT_NAME":"SKYTERRA 1","OBJECT_ID":"2010-061A","EPOCH":"2026-02-01T14:42:58.027104","MEAN_MOTION":1.00271588,"ECCENTRICITY":0.00026149,"INCLINATION":4.836,"RA_OF_ASC_NODE":50.9321,"ARG_OF_PERICENTER":226.5658,"MEAN_ANOMALY":333.7106,"EPHEMERIS_TYPE":0,"CLASSIFICATION_TYPE":"U","NORAD_CAT_ID":37218,"ELEMENT_SET_NO":999,"REV_AT_EPOCH":5583,"BSTAR":0,"MEAN_MOTION_DOT":-1.28e-6,"MEAN_MOTION_DDOT":0},{"OBJECT_NAME":"HYLAS 1","OBJECT_ID":"2010-065A","EPOCH":"2026-02-01T21:50:40.408224","MEAN_MOTION":1.00653535,"ECCENTRICITY":0.00016083,"INCLINATION":5.3005,"RA_OF_ASC_NODE":74.7019,"ARG_OF_PERICENTER":311.5819,"MEAN_ANOMALY":31.227,"EPHEMERIS_TYPE":0,"CLASSIFICATION_TYPE":"U","NORAD_CAT_ID":37237,"ELEMENT_SET_NO":999,"REV_AT_EPOCH":552,"BSTAR":0,"MEAN_MOTION_DOT":-2.43e-6,"MEAN_MOTION_DDOT":0},{"OBJECT_NAME":"INTELSAT 17 (IS-17)","OBJECT_ID":"2010-065B","EPOCH":"2026-02-01T22:21:29.954016","MEAN_MOTION":1.0027391,"ECCENTRICITY":0.00025455,"INCLINATION":0.0302,"RA_OF_ASC_NODE":218.2159,"ARG_OF_PERICENTER":103.5567,"MEAN_ANOMALY":211.7135,"EPHEMERIS_TYPE":0,"CLASSIFICATION_TYPE":"U","NORAD_CAT_ID":37238,"ELEMENT_SET_NO":999,"REV_AT_EPOCH":5189,"BSTAR":0,"MEAN_MOTION_DOT":-1.2e-7,"MEAN_MOTION_DDOT":0}]
