ASTRA 3B                
1 36581U 10021A   26032.88725214  .00000126  00000+0  00000+0 0  9994
2 36581   1.1187  85.4055 0002421 245.1926 144.3552  1.00271485 57518
COMSATBW-2              
1 36582U 10021B   26032.92119663  .00000078  00000+0  00000+0 0  9991
2 36582   0.0548 194.4664 0002659 120.7464 161.7011  1.00268577 57604
BEIDOU-2 G3             
1 36590U 10024A   26032.72037884 -.00000146  00000+0  00000+0 0  9992
2 36590   4.1936  62.0405 0006528 310.7134  98.0672  1.00272515 57417
BADR-5                  
1 36592U 10025A   26032.88725214  .00000135  00000+0  00000+0 0  9990
2 36592   0.0636 107.4272 0000594 191.8157 178.1835  1.00271601 51866
COMS 1                  
1 36744U 10032A   26032.94399010 -.00000356  00000+0  00000+0 0  9991
2 36744   4.4617  77.3374 0001187 233.7224 289.0823  1.00271430 49732
ARABSAT-5A              
1 36745U 10032B   26032.92457664  .00000143  00000+0  00000+0 0  9993
2 36745   0.0637  48.7663 0001694 289.4855 157.2030  1.00268938 57296
ECHOSTAR 15             
1 36792U 10034A   26032.89484983  .00000000  00000+0  00000+0 0  9999
2 36792   0.0154  85.6542 0002371 208.6884  41.1014  1.00269072 56962
BEIDOU-2 IGSO-1         
1 36828U 10036A   26032.79700260 -.00000150  00000+0  00000+0 0  9996
2 36828  54.2928 164.1862 0052942 217.4010 144.2759  1.00260948 56748
NILESAT 201             
1 36830U 10037A   26032.91712328 -.00000068  00000+0  00000+0 0  9990
2 36830   0.0419 235.8079 0003403  58.4895 160.9796  1.00269868 57009
RASCOM-QAF 1R           
1 36831U 10037B   26032.91911662  .00000008  00000+0  00000+0 0  9996
2 36831   0.0245 105.0751 0006900 202.0958 158.7016  1.00270814 56950
AEHF-1 (USA 214)        
1 36868U 10039A   26032.78183586  .00000136  00000+0  00000+0 0  9991
2 36868   7.8880  69.8066 0004666 231.8201 141.8264  1.00276904 52303
XM-5                    
1 37185U 10053A   26032.89571649 -.00000033  00000+0  00000+0 0  9990
2 37185   0.0646 268.4447 0002893 257.3747 173.5100  1.00271385 56122
BSAT-3B                 
1 37207U 10056B   26032.94035008 -.00000360  00000+0  00000+0 0  9991
2 37207   0.0505 240.3786 0003202  46.2572 293.8478  1.00271129 50744
BEIDOU-2 G4             
1 37210U 10057A   26032.87890307 -.00000125  00000+0  00000+0 0  9998
2 37210   3.3102  69.7190 0010161 204.3573 334.3095  1.00269261 55935
SKYTERRA 1              
1 37218U 10061A   26032.61317161 -.00000128  00000+0  00000+0 0  9998
2 37218   4.8360  50.9321 0002614 226.5658 333.7106  1.00271588 55837
HYLAS 1                 
1 37237U 10065A   26032.91018991 -.00000243  00000+0  00000+0 0  9993
2 37237   5.3005  74.7019 0001608 311.5819  31.2270  1.00653535  5523
INTELSAT 17 (IS-17)     
1 37238U 10065B   26032.93159669 -.00000012  00000+0  00000+0 0  9998
2 37238   0.0302 218.2159 0002545 103.5567 211.7135  1.00273910 51897
